NORAD_CAT_ID,OBJECT_NAME,OBJECT_TYPE,EPOCH,MEAN_MOTION,ECCENTRICITY,INCLINATION,RA_OF_ASC_NODE,ARG_OF_PERICENTER,MEAN_ANOMALY,BSTAR,MEAN_MOTION_DOT,MEAN_MOTION_DDOT,TLE_LINE0,TLE_LINE1,TLE_LINE2,SEMIMAJOR_AXIS,PERIOD,APOGEE,PERIGEE,DECAYED
51146.0,STARLINK-3354,PAYLOAD,2022-05-29 14:00:01,15.08820447,0.0001692,53.2182,14.6482,55.4996,209.0093,-5.578e-05,-1.175e-05,0.0,0 STARLINK-3354,1 51146U 22005AU  22149.58334491 -.00001175  00000-0 -55780-4 0  9996,2 51146  53.2182  14.6482 0001692  55.4996 209.0093 15.08820447  1307,6917.94,95.439,540.976,538.635,0.0
51146.0,STARLINK-3354,PAYLOAD,2022-05-29 20:46:54,15.08835876,0.000184,53.219,13.3799,50.2893,309.8261,-4.8734e-05,-1.064e-05,0.0,0 STARLINK-3354,1 51146U 22005AU  22149.86590461 -.00001064  00000-0 -48734-4 0  9996,2 51146  53.2190  13.3799 0001840  50.2893 309.8261 15.08835876 20429,6917.893,95.438,541.031,538.485,0.0
51146.0,STARLINK-3354,PAYLOAD,2022-05-29 22:00:00,15.08811128,0.0001899,53.2181,13.1538,51.451,224.6317,0.0002869,4.277e-05,0.0,0 STARLINK-3354,1 51146U 22005AU  22149.91667824  .00004277  00000-0  28690-3 0  9995,2 51146  53.2181  13.1538 0001899  51.4510 224.6317 15.08811128 21556,6917.969,95.439,541.1469999999998,538.52,0.0
51146.0,STARLINK-3354,PAYLOAD,2022-05-30 14:00:01,15.08820149,0.0001779,53.2178,10.1593,57.7705,241.4543,0.0023106,0.00036657,0.0,0 STARLINK-3354,1 51146U 22005AU  22150.58334491  .00036657  00000-0  23106-2 0  9994,2 51146  53.2178  10.1593 0001779  57.7705 241.4543 15.08820149  1304,6917.941,95.439,541.0369999999998,538.575,0.0
51146.0,STARLINK-3354,PAYLOAD,2022-05-30 22:00:00,15.08832403,0.0001962,53.2176,8.6647,52.2849,258.5271,0.00045993,7.038e-05,0.0,0 STARLINK-3354,1 51146U 22005AU  22150.91667824  .00007038  00000-0  45993-3 0  9990,2 51146  53.2176   8.6647 0001962  52.2849 258.5271 15.08832403 21706,6917.904,95.438,541.126,538.411,0.0
51146.0,STARLINK-3354,PAYLOAD,2022-05-31 06:00:02,15.08870454,0.0001849,53.2175,7.1675,50.7801,271.6781,-0.0048482,-0.00076692,0.0,0 STARLINK-3354,1 51146U 22005AU  22151.25002315 -.00076692  00000-0 -48482-2 0  9995,2 51146  53.2175   7.1675 0001849  50.7801 271.6781 15.08870454  1309,6917.7869999999975,95.436,540.931,538.373,0.0
51146.0,STARLINK-3354,PAYLOAD,2022-05-31 22:00:00,15.08826009,0.0001956,53.2176,4.1756,50.8473,294.7314,0.00073511,0.00011426,0.0,0 STARLINK-3354,1 51146U 22005AU  22151.91667824  .00011426  00000-0  73511-3 0  9994,2 51146  53.2176   4.1756 0001956  50.8473 294.7314 15.08826009 21859,6917.9230000000025,95.438,541.141,538.435,0.0
51146.0,STARLINK-3354,PAYLOAD,2022-06-01 20:00:01,15.08867194,0.0001938,53.2179,0.0601,51.5025,235.959,-0.00296,-0.00047125,0.0,0 STARLINK-3354,1 51146U 22005AU  22152.83334491 -.00047125  00000-0 -29600-2 0  9993,2 51146  53.2179   0.0601 0001938  51.5025 235.9590 15.08867194  1308,6917.797,95.436,541.003,538.322,0.0
51146.0,STARLINK-3354,PAYLOAD,2022-06-02 16:59:16,15.08835007,0.0001889,53.2199,356.1330000000001,56.1958,303.9214,2.7228e-05,1.45e-06,0.0,0 STARLINK-3354,1 51146U 22005AU  22153.70783441  .00000145  00000-0  27228-4 0  9998,2 51146  53.2199 356.1330 0001889  56.1958 303.9214 15.08835007 22125,6917.896,95.438,541.067,538.4540000000002,0.0
51146.0,STARLINK-3354,PAYLOAD,2022-06-03 15:14:40,15.08847624,0.0001909,53.2194,351.9697,61.8391,298.2793,3.0821e-05,2.02e-06,0.0,0 STARLINK-3354,1 51146U 22005AU  22154.63518553  .00000202  00000-0  30821-4 0  9998,2 51146  53.2194 351.9697 0001909  61.8391 298.2793 15.08847624 22267,6917.857,95.437,541.043,538.401,0.0
51146.0,STARLINK-3354,PAYLOAD,2022-06-04 13:30:04,15.0883557,0.0001622,53.2205,347.8066,53.4519,306.6622,4.125e-05,3.68e-06,0.0,0 STARLINK-3354,1 51146U 22005AU  22155.56255209  .00000368  00000-0  41250-4 0  9998,2 51146  53.2205 347.8066 0001622  53.4519 306.6622 15.08835570 21288,6917.894,95.438,540.881,538.637,0.0
51146.0,STARLINK-3354,PAYLOAD,2022-06-05 22:00:00,15.08812207,0.000175,53.2184,341.7305,48.8756,110.6572,0.002392,0.00037957,0.0,0 STARLINK-3354,1 51146U 22005AU  22156.91667824  .00037957  00000-0  23920-2 0  9994,2 51146  53.2184 341.7305 0001750  48.8756 110.6572 15.08812207 22613,6917.965,95.439,541.0409999999998,538.62,0.0
51146.0,STARLINK-3354,PAYLOAD,2022-06-06 14:00:01,15.08853987,0.0001631,53.2182,338.7365,56.973,125.7261,-0.00070576,-0.00011507,0.0,0 STARLINK-3354,1 51146U 22005AU  22157.58334491 -.00011507  00000-0 -70576-3 0  9994,2 51146  53.2182 338.7365 0001631  56.9730 125.7261 15.08853987 22716,6917.8380000000025,95.437,540.831,538.5740000000002,0.0
51146.0,STARLINK-3354,PAYLOAD,2022-06-06 22:00:00,15.08831377,0.0001749,53.218,337.2418,48.962,145.3485,0.0017364,0.00027448,0.0,0 STARLINK-3354,1 51146U 22005AU  22157.91667824  .00027448  00000-0  17364-2 0  9994,2 51146  53.2180 337.2418 0001749  48.9620 145.3485 15.08831377  1303,6917.906999999997,95.438,540.982,538.562,0.0
51146.0,STARLINK-3354,PAYLOAD,2022-06-07 00:19:19,15.08846367,0.0001667,53.2191,336.8049,50.9215,309.1925,6.9489e-05,8.18e-06,0.0,0 STARLINK-3354,1 51146U 22005AU  22158.01342417  .00000818  00000-0  69489-4 0  9993,2 51146  53.2191 336.8049 0001667  50.9215 309.1925 15.08846367 22770,6917.861,95.437,540.879,538.573,0.0
51146.0,STARLINK-3354,PAYLOAD,2022-06-07 17:48:34,15.08841953,0.0001675,53.2192,333.5337,52.3015,307.8129,3.0851e-05,2.03e-06,0.0,0 STARLINK-3354,1 51146U 22005AU  22158.74206659  .00000203  00000-0  30851-4 0  9999,2 51146  53.2192 333.5337 0001675  52.3015 307.8129 15.08841953 22887,6917.874,95.437,540.898,538.581,0.0
51146.0,STARLINK-3354,PAYLOAD,2022-06-07 20:59:21,15.08836416,0.0001679,53.2193,332.9393,53.2824,306.8322,5.6657e-05,6.14e-06,0.0,0 STARLINK-3354,1 51146U 22005AU  22158.87454921  .00000614  00000-0  56657-4 0  9998,2 51146  53.2193 332.9393 0001679  53.2824 306.8322 15.08836416 21785,6917.891,95.438,540.918,538.595,0.0
51146.0,STARLINK-3354,PAYLOAD,2022-06-08 04:56:16,15.08842556,0.0001671,53.2193,331.4526,52.9707,307.1438,8.7285e-05,1.101e-05,0.0,0 STARLINK-3354,1 51146U 22005AU  22159.20574464  .00001101  00000-0  87285-4 0  9994,2 51146  53.2193 331.4526 0001671  52.9707 307.1438 15.08842556 21835,6917.873000000001,95.437,540.894,538.582,0.0
51146.0,STARLINK-3354,PAYLOAD,2022-06-08 20:50:08,15.08834033,0.000164,53.2193,328.4788,47.8589,312.2542,-3.3947e-05,-8.28e-06,0.0,0 STARLINK-3354,1 51146U 22005AU  22159.86815329 -.00000828  00000-0 -33947-4 0  9997,2 51146  53.2193 328.4788 0001640  47.8589 312.2542 15.08834033 21933,6917.899,95.438,540.898,538.629,0.0
51146.0,STARLINK-3354,PAYLOAD,2022-06-09 04:47:03,15.08845539,0.000164,53.2193,326.992,51.5669,308.547,-9.1881e-05,-1.75e-05,0.0,0 STARLINK-3354,1 51146U 22005AU  22160.19934758 -.00001750  00000-0 -91881-4 0  9999,2 51146  53.2193 326.9920 0001640  51.5669 308.5470 15.08845539 23107,6917.863,95.437,540.863,538.594,0.0
51146.0,STARLINK-3354,PAYLOAD,2022-06-09 11:08:36,15.08841198,0.0001617,53.2193,325.8026,50.9801,309.1334,8.2266e-06,-1.57e-06,0.0,0 STARLINK-3354,1 51146U 22005AU  22160.46430739 -.00000157  00000-0  82266-5 0  9996,2 51146  53.2193 325.8026 0001617  50.9801 309.1334 15.08841198 22020,6917.877,95.437,540.86,538.623,0.0
51146.0,STARLINK-3354,PAYLOAD,2022-06-09 20:40:55,15.08835405,0.0001622,53.2191,324.019,45.6769,314.4356,-4.5032e-05,-1.005e-05,0.0,0 STARLINK-3354,1 51146U 22005AU  22160.86175306 -.00001005  00000-0 -45032-4 0  9999,2 51146  53.2191 324.0190 0001622  45.6769 314.4356 15.08835405 23209,6917.894,95.438,540.882,538.637,0.0
51146.0,STARLINK-3354,PAYLOAD,2022-06-10 12:34:47,15.08833751,0.0001567,53.219,321.0453,47.9832,312.1294,-3.2065e-05,-7.98e-06,0.0,0 STARLINK-3354,1 51146U 22005AU  22161.52415593 -.00000798  00000-0 -32065-4 0  9998,2 51146  53.2190 321.0453 0001567  47.9832 312.1294 15.08833751 22185,6917.899,95.438,540.849,538.68,0.0
51146.0,STARLINK-3354,PAYLOAD,2022-06-10 17:20:56,15.08835966,0.0001582,53.2189,320.1533,46.4912,313.6211,3.2175e-05,2.24e-06,0.0,0 STARLINK-3354,1 51146U 22005AU  22161.72287325  .00000224  00000-0  32175-4 0  9994,2 51146  53.2189 320.1533 0001582  46.4912 313.6211 15.08835966 22211,6917.893,95.438,540.852,538.663,0.0
51146.0,STARLINK-3354,PAYLOAD,2022-06-11 12:25:33,15.08840016,0.0001818,53.2193,316.5859,51.7242,308.3914,1.0026e-05,-1.29e-06,0.0,0 STARLINK-3354,1 51146U 22005AU  22162.51775359 -.00000129  00000-0  10026-4 0  9997,2 51146  53.2193 316.5859 0001818  51.7242 308.3914 15.08840016 23453,6917.88,95.438,541.003,538.488,0.0
51146.0,STARLINK-3354,PAYLOAD,2022-06-11 18:47:06,15.08834253,0.0001744,53.2192,315.3958,55.7281,304.3876,-3.3829000000000004e-05,-8.26e-06,0.0,0 STARLINK-3354,1 51146U 22005AU  22162.78271945 -.00000826  00000-0 -33829-4 0  9999,2 51146  53.2192 315.3958 0001744  55.7281 304.3876 15.08834253 23497,6917.898,95.438,540.969,538.556,0.0
51146.0,STARLINK-3354,PAYLOAD,2022-06-11 20:22:30,15.08835266,0.0001671,53.2192,315.0984,48.1338,311.9797,-1.7627e-05,-5.69e-06,0.0,0 STARLINK-3354,1 51146U 22005AU  22162.84895848 -.00000569  00000-0 -17627-4 0  9992,2 51146  53.2192 315.0984 0001671  48.1338 311.9797 15.08835266 22389,6917.895,95.438,540.9159999999998,538.604,0.0
51146.0,STARLINK-3354,PAYLOAD,2022-06-12 12:16:21,15.08840681,0.0001619,53.219,312.1246,52.0924,308.0215,7.2627e-05,8.68e-06,0.0,0 STARLINK-3354,1 51146U 22005AU  22163.51135430  .00000868  00000-0  72627-4 0  9992,2 51146  53.2190 312.1246 0001619  52.0924 308.0215 15.08840681 23608,6917.878000000002,95.438,540.863,538.623,0.0
51146.0,STARLINK-3354,PAYLOAD,2022-06-12 18:37:53,15.088467499999998,0.0001688,53.219,310.9354,48.1914,311.9222,9.8889e-05,1.286e-05,0.0,0 STARLINK-3354,1 51146U 22005AU  22163.77630971  .00001286  00000-0  98889-4 0  9993,2 51146  53.2190 310.9354 0001688  48.1914 311.9222 15.08846750 22529,6917.86,95.437,540.8919999999998,538.557,0.0
